[{"model": "Panacea.organization", "pk": 1, "fields": {"name": "Washington State Department of Transportation", "address_line_1": "310 Maple Park Ave. SE", "address_line_2": null, "city": "Olympia", "state": "WA", "zip_code": "98504", "vanshare_program": true}}, {"model": "Panacea.organization", "pk": 2, "fields": {"name": "Test Reporter", "address_line_1": "100 Test St.", "address_line_2": null, "city": "Test Town", "state": "WA", "zip_code": "98504", "vanshare_program": true}}, {"model": "Panacea.organization", "pk": 3, "fields": {"name": "Test Reporter 2", "address_line_1": "200 Test St.", "address_line_2": null, "city": "Testville", "state": "WA", "zip_code": "98504", "vanshare_program": false}}, {"model": "Panacea.organization", "pk": 4, "fields": {"name": "Asotin County PTBA", "address_line_1": "1494 Poplar Street", "address_line_2": null, "city": "Clarkston", "state": "WA", "zip_code": "99403", "vanshare_program": true}}, {"model": "Panacea.organization", "pk": 5, "fields": {"name": "Ben Franklin Transit", "address_line_1": "1000 Columbia Park Trail", "address_line_2": null, "city": "Richland", "state": "WA", "zip_code": "99352", "vanshare_program": true}}, {"model": "Panacea.organization", "pk": 6, "fields": {"name": "C-TRAN", "address_line_1": "PO BOX 2529", "address_line_2": null, "city": "Vancouver", "state": "WA", "zip_code": "98668", "vanshare_program": true}}, {"model": "Panacea.organization", "pk": 7, "fields": {"name": "Clallam Transit", "address_line_1": "830 West Laurisden Blvd", "address_line_2": null, "city": "Port Angeles", "state": "WA", "zip_code": "98362", "vanshare_program": true}}, {"model": "Panacea.organization", "pk": 8, "fields": {"name": "Columbia Co. Public Tran.", "address_line_1": "507 Cameron Street", "address_line_2": null, "city": "Dayton", "state": "WA", "zip_code": "99328", "vanshare_program": true}}, {"model": "Panacea.organization", "pk": 9, "fields": {"name": "Community Transit", "address_line_1": "7100 Hardeson Road", "address_line_2": null, "city": "Everett", "state": "WA", "zip_code": "98203", "vanshare_program": true}}, {"model": "Panacea.organization", "pk": 10, "fields": {"name": "Grant Transit Authority", "address_line_1": "116 West 5th Ave", "address_line_2": null, "city": "Moses Lake", "state": "WA", "zip_code": "98837", "vanshare_program": true}}, {"model": "Panacea.organization", "pk": 11, "fields": {"name": "Grays Harbor Transit", "address_line_1": "705 30th Street", "address_line_2": null, "city": "Hoquiam", "state": "WA", "zip_code": "98550", "vanshare_program": true}}, {"model": "Panacea.organization", "pk": 12, "fields": {"name": "Intercity Transit", "address_line_1": "526 Pattison Street SE", "address_line_2": null, "city": "Olympia", "state": "WA", "zip_code": "98501", "vanshare_program": true}}, {"model": "Panacea.organization", "pk": 13, "fields": {"name": "Island Transit", "address_line_1": "19578 SR 20", "address_line_2": null, "city": "Coupeville", "state": "WA", "zip_code": "98239", "vanshare_program": true}}, {"model": "Panacea.organization", "pk": 14, "fields": {"name": "Jefferson Transit", "address_line_1": "63 4 Corners Road", "address_line_2": null, "city": "Port Townsend", "state": "WA", "zip_code": "98368", "vanshare_program": true}}, {"model": "Panacea.organization", "pk": 15, "fields": {"name": "King County Metro", "address_line_1": "201 Jackson Street", "address_line_2": null, "city": "Seattle", "state": "WA", "zip_code": "98104", "vanshare_program": true}}, {"model": "Panacea.organization", "pk": 16, "fields": {"name": "Kitsap Transit", "address_line_1": "60 Washington Ave #200", "address_line_2": null, "city": "Bremerton", "state": "WA", "zip_code": "98337", "vanshare_program": true}}, {"model": "Panacea.organization", "pk": 17, "fields": {"name": "Link Transit", "address_line_1": "2700 Euclid Ave", "address_line_2": null, "city": "Wenatchee", "state": "WA", "zip_code": "98801", "vanshare_program": true}}, {"model": "Panacea.organization", "pk": 18, "fields": {"name": "Mason Transit", "address_line_1": "790 East Johns Prairie Road", "address_line_2": null, "city": "Shelton", "state": "WA", "zip_code": "98584", "vanshare_program": true}}, {"model": "Panacea.organization", "pk": 19, "fields": {"name": "Pierce Transit", "address_line_1": "3701 96th Street SW", "address_line_2": null, "city": "Lakewood", "state": "WA", "zip_code": "98499", "vanshare_program": true}}, {"model": "Panacea.organization", "pk": 20, "fields": {"name": "River Cities Transit", "address_line_1": "1135 12th Avenue", "address_line_2": null, "city": "Longview", "state": "WA", "zip_code": "98632", "vanshare_program": true}}, {"model": "Panacea.organization", "pk": 21, "fields": {"name": "Skagit Transit", "address_line_1": "600 County Shop Lane", "address_line_2": null, "city": "Burlington", "state": "WA", "zip_code": "98233", "vanshare_program": true}}, {"model": "Panacea.organization", "pk": 22, "fields": {"name": "Spokane Transit", "address_line_1": "W. 1230 Boone Avenue", "address_line_2": null, "city": "Spokane", "state": "WA", "zip_code": "99201", "vanshare_program": true}}, {"model": "Panacea.organization", "pk": 23, "fields": {"name": "TranGo", "address_line_1": "303 2nd Avenue South", "address_line_2": null, "city": "Okanogan", "state": "WA", "zip_code": "98840", "vanshare_program": true}}, {"model": "Panacea.organization", "pk": 24, "fields": {"name": "Valley Transit", "address_line_1": "1401 Rose Street", "address_line_2": null, "city": "Walla Walla", "state": "WA", "zip_code": "99362", "vanshare_program": true}}, {"model": "Panacea.organization", "pk": 25, "fields": {"name": "Whatcom Transit", "address_line_1": "4111 Bakerview Spur", "address_line_2": null, "city": "Bellingham", "state": "WA", "zip_code": "98226", "vanshare_program": true}}, {"model": "Panacea.organization", "pk": 26, "fields": {"name": "Yakima Transit", "address_line_1": "2301 Fruitvale Blvd", "address_line_2": null, "city": "Yakima", "state": "WA", "zip_code": "98902", "vanshare_program": true}}]